{
  "norad_id": 59846,
  "name": "STARLINK-31922",
  "history": [
    {
      "epoch": "2026-03-28T13:01:14.045088",
      "apogee_km": 483.48279102064953,
      "perigee_km": 482.50713805529267,
      "latitude_deg": 26.013215664930662,
      "longitude_deg": -143.3177276798524,
      "semi_major_axis_km": 6861.131964537971,
      "eccentricity": 7.11e-05,
      "inclination_deg": 43.0007,
      "raan_deg": 167.5789,
      "arg_perigee_deg": 87.6178,
      "mean_anomaly_deg": 272.4755,
      "mean_motion_rev_day": 15.27598078
    }
  ]
}